NORAD_CAT_ID,OBJECT_NAME,OBJECT_TYPE,EPOCH,MEAN_MOTION,ECCENTRICITY,INCLINATION,RA_OF_ASC_NODE,ARG_OF_PERICENTER,MEAN_ANOMALY,BSTAR,MEAN_MOTION_DOT,MEAN_MOTION_DDOT,TLE_LINE0,TLE_LINE1,TLE_LINE2,SEMIMAJOR_AXIS,PERIOD,APOGEE,PERIGEE,DECAYED
55916.0,STARLINK-5796,PAYLOAD,2023-11-26 04:29:44,14.98338839,0.0002676,70.001,248.6623,265.6104,94.4749,0.00036843,4.307e-05,0.0,0 STARLINK-5796,1 55916U 23037C   23330.18732446  .00004307  00000-0  36843-3 0  9998,2 55916  70.0010 248.6623 0002676 265.6104  94.4749 14.98338839 38488,6950.166,96.106,573.89,570.171,0.0
55916.0,STARLINK-5796,PAYLOAD,2023-11-26 18:54:59,14.98322328,0.0002721,69.9998,247.1429,258.6474,101.4379,-0.00015969,-1.997e-05,0.0,0 STARLINK-5796,1 55916U 23037C   23330.78818711 -.00001997  00000-0 -15969-3 0  9994,2 55916  69.9998 247.1429 0002721 258.6474 101.4379 14.98322328 38913,6950.217,96.107,573.973,570.19,0.0
55916.0,STARLINK-5796,PAYLOAD,2023-11-26 22:07:15,14.9831886,0.0002987,69.9994,246.8082,261.6183,98.4637,-0.00021198,-2.621e-05,0.0,0 STARLINK-5796,1 55916U 23037C   23330.92171061 -.00002621  00000-0 -21198-3 0  9996,2 55916  69.9994 246.8082 0002987 261.6183  98.4637 14.98318860 38597,6950.227,96.108,574.168,570.016,0.0
55916.0,STARLINK-5796,PAYLOAD,2023-11-27 04:31:48,14.98317576,0.0002857,69.9996,246.1327,263.3574,96.726,-0.00017493,-2.179e-05,0.0,0 STARLINK-5796,1 55916U 23037C   23331.18875291 -.00002179  00000-0 -17493-3 0  9992,2 55916  69.9996 246.1327 0002857 263.3574  96.7260 14.98317576 38634,6950.231,96.108,574.082,570.111,0.0
55916.0,STARLINK-5796,PAYLOAD,2023-11-27 18:57:00,14.98329405,0.0003354,69.9983,244.6165,261.6082,98.4697,-6.9089e-05,-9.17e-06,0.0,0 STARLINK-5796,1 55916U 23037C   23331.78958362 -.00000917  00000-0 -69089-4 0  9996,2 55916  69.9983 244.6165 0003354 261.6082  98.4697 14.98329405 39066,6950.195,96.107,574.391,569.729,0.0
55916.0,STARLINK-5796,PAYLOAD,2023-11-27 22:09:15,14.98330722,0.0002793,70.0006,244.2806,267.0115,93.0724,2.8549e-05,2.48e-06,0.0,0 STARLINK-5796,1 55916U 23037C   23331.92310173  .00000248  00000-0  28549-4 0  9995,2 55916  70.0006 244.2806 0002793 267.0115  93.0724 14.98330722 38746,6950.191,96.107,573.997,570.114,0.0
55916.0,STARLINK-5796,PAYLOAD,2023-11-28 02:57:39,14.98341344,0.0002881,69.9996,243.7784,249.8932,110.1918,7.1369e-05,7.59e-06,0.0,0 STARLINK-5796,1 55916U 23037C   23332.12337249  .00000759  00000-0  71369-4 0  9996,2 55916  69.9996 243.7784 0002881 249.8932 110.1918 14.98341344 39113,6950.158,96.106,574.025,570.02,0.0
55916.0,STARLINK-5796,PAYLOAD,2023-11-28 04:33:47,14.98345602,0.0002648,70.0006,243.6076,266.1026,93.9831,0.00013703,1.543e-05,0.0,0 STARLINK-5796,1 55916U 23037C   23332.19012939  .00001543  00000-0  13703-3 0  9998,2 55916  70.0006 243.6076 0002648 266.1026  93.9831 14.98345602 38783,6950.145,96.106,573.85,570.169,0.0
55916.0,STARLINK-5796,PAYLOAD,2023-11-28 20:35:08,14.98322063,0.0002869,69.9998,241.9243,259.1044,100.9792,0.00033267,3.878e-05,0.0,0 STARLINK-5796,1 55916U 23037C   23332.85773946  .00003878  00000-0  33267-3 0  9993,2 55916  69.9998 241.9243 0002869 259.1044 100.9792 14.98322063 39225,6950.217,96.108,574.076,570.088,0.0
55916.0,STARLINK-5796,PAYLOAD,2023-11-28 22:11:16,14.98321896,0.0002621,70.0009,241.7572,257.1994,102.8872,0.00033739,3.934e-05,0.0,0 STARLINK-5796,1 55916U 23037C   23332.92449976  .00003934  00000-0  33739-3 0  9991,2 55916  70.0009 241.7572 0002621 257.1994 102.8872 14.98321896 38897,6950.218,96.108,573.905,570.261,0.0
55916.0,STARLINK-5796,PAYLOAD,2023-11-29 02:59:40,14.98327911,0.0002686,70.0003,241.2516,266.4033,93.6818,0.00037713,4.409e-05,0.0,0 STARLINK-5796,1 55916U 23037C   23333.12477635  .00004409  00000-0  37713-3 0  9991,2 55916  70.0003 241.2516 0002686 266.4033  93.6818 14.98327911 38927,6950.199,96.107,573.931,570.198,0.0
55916.0,STARLINK-5796,PAYLOAD,2023-11-30 03:01:41,14.98327173,0.000268,70.0008,238.7281,241.686,118.4029,0.00015554,1.763e-05,0.0,0 STARLINK-5796,1 55916U 23037C   23334.12617879  .00001763  00000-0  15554-3 0  9997,2 55916  70.0008 238.7281 0002680 241.6860 118.4029 14.98327173 39414,6950.202,96.107,573.929,570.204,0.0
55916.0,STARLINK-5796,PAYLOAD,2023-12-01 03:03:42,14.98332217,0.0002831,69.9994,236.2018,266.1184,93.9651,-5.4322e-05,-7.41e-06,0.0,0 STARLINK-5796,1 55916U 23037C   23335.12757936 -.00000741  00000-0 -54322-4 0  9991,2 55916  69.9994 236.2018 0002831 266.1184  93.9651 14.98332217 39564,6950.186,96.107,574.019,570.083,0.0
55916.0,STARLINK-5796,PAYLOAD,2023-12-01 22:17:18,14.98347158,0.0002284,70.0008,234.184,241.6593,118.4336,0.0002245,2.588e-05,0.0,0 STARLINK-5796,1 55916U 23037C   23335.92868111  .00002588  00000-0  22450-3 0  9992,2 55916  70.0008 234.1840 0002284 241.6593 118.4336 14.98347158 39346,6950.14,96.106,573.592,570.417,0.0
55916.0,STARLINK-5796,PAYLOAD,2023-12-01 23:53:26,14.98344149,0.0002261,70.0011,234.0161,239.8258,120.2677,0.000193,2.211e-05,0.0,0 STARLINK-5796,1 55916U 23037C   23335.99544318  .00002211  00000-0  19300-3 0  9992,2 55916  70.0011 234.0161 0002261 239.8258 120.2677 14.98344149 39691,6950.149,96.106,573.586,570.443,0.0
55916.0,STARLINK-5796,PAYLOAD,2023-12-02 03:05:41,14.98357776,0.0002534,69.9996,233.6781,260.6049,99.4824,0.00025684,2.975e-05,0.0,0 STARLINK-5796,1 55916U 23037C   23336.12895276  .00002975  00000-0  25684-3 0  9999,2 55916  69.9996 233.6781 0002534 260.6049  99.4824 14.98357776 39710,6950.107,96.105,573.733,570.211,0.0
55916.0,STARLINK-5796,PAYLOAD,2023-12-02 19:07:04,14.9832136,0.0002995,69.9988,231.9943,269.812,90.2696,-5.9228e-05,-7.99e-06,0.0,0 STARLINK-5796,1 55916U 23037C   23336.79658216 -.00000799  00000-0 -59228-4 0  9999,2 55916  69.9988 231.9943 0002995 269.8120  90.2696 14.98321360 39811,6950.22,96.108,574.166,570.003,0.0
55916.0,STARLINK-5796,PAYLOAD,2023-12-02 22:19:21,14.98316624,0.0002929,69.9988,231.6574,265.8049,94.2775,-0.00010555,-1.352e-05,0.0,0 STARLINK-5796,1 55916U 23037C   23336.93010634 -.00001352  00000-0 -10555-3 0  9996,2 55916  69.9988 231.6574 0002929 265.8049  94.2775 14.98316624 39494,6950.234,96.108,574.135,570.064,0.0
55916.0,STARLINK-5796,PAYLOAD,2023-12-03 03:07:45,14.98320006,0.0003064,69.9985,231.153,266.0737,94.0072,-7.9386e-05,-1.04e-05,0.0,0 STARLINK-5796,1 55916U 23037C   23337.13038459 -.00001040  00000-0 -79386-4 0  9996,2 55916  69.9985 231.1530 0003064 266.0737  94.0072 14.98320006 39527,6950.224,96.108,574.218,569.959,0.0
55916.0,STARLINK-5796,PAYLOAD,2023-12-03 20:45:13,14.98368162,0.0002419,69.9983,229.3012,254.4436,105.6456,-0.00074513,-8.981e-05,0.0,0 STARLINK-5796,1 55916U 23037C   23337.86473556 -.00008981  00000-0 -74513-3 0  9994,2 55916  69.9983 229.3012 0002419 254.4436 105.6456 14.98368162 39978,6950.075,96.105,573.621,570.259,0.0
55916.0,STARLINK-5796,PAYLOAD,2023-12-04 03:09:45,14.98336985,0.0002492,69.9987,228.6274,246.8871,113.2026,-6.319e-05,-8.47e-06,0.0,0 STARLINK-5796,1 55916U 23037C   23338.13177543 -.00000847  00000-0 -63190-4 0  9995,2 55916  69.9987 228.6274 0002492 246.8871 113.2026 14.98336985 40016,6950.171,96.107,573.768,570.304,0.0
55916.0,STARLINK-5796,PAYLOAD,2023-12-04 15:58:49,14.98325671,0.0002908,69.9985,227.2806,261.471,98.6119,0.00022609,2.605e-05,0.0,0 STARLINK-5796,1 55916U 23037C   23338.66585461  .00002605  00000-0  22609-3 0  9996,2 55916  69.9985 227.2806 0002908 261.4710  98.6119 14.98325671 39755,6950.206,96.107,574.092,570.05,0.0
55916.0,STARLINK-5796,PAYLOAD,2023-12-05 03:11:45,14.98332051,0.0002617,69.999,226.1018,255.078,105.0089,0.00030685,3.57e-05,0.0,0 STARLINK-5796,1 55916U 23037C   23339.13316915  .00003570  00000-0  30685-3 0  9990,2 55916  69.9990 226.1018 0002617 255.0780 105.0089 14.98332051 40163,6950.187,96.107,573.87,570.233,0.0
55916.0,STARLINK-5796,PAYLOAD,2023-12-05 16:00:50,14.98330842,0.0002146,70.0007,224.7562,237.1144,122.9809,0.0001239,1.386e-05,0.0,0 STARLINK-5796,1 55916U 23037C   23339.66725415  .00001386  00000-0  12390-3 0  9993,2 55916  70.0007 224.7562 0002146 237.1144 122.9809 14.98330842 39909,6950.19,96.107,573.547,570.564,0.0
55916.0,STARLINK-5796,PAYLOAD,2023-12-06 01:37:39,14.98325999,0.0002275,70.0006,223.7463,239.3472,120.7463,4.9276e-05,4.95e-06,0.0,0 STARLINK-5796,1 55916U 23037C   23340.06781873  .00000495  00000-0  49276-4 0  9993,2 55916  70.0006 223.7463 0002275 239.3472 120.7463 14.98325999 40303,6950.205,96.107,573.651,570.489,0.0
55916.0,STARLINK-5796,PAYLOAD,2023-12-06 22:27:22,14.98347232,0.0002238,69.9991,221.5569,279.3018,80.7888,7.3033e-05,7.79e-06,0.0,0 STARLINK-5796,1 55916U 23037C   23340.93568059  .00000779  00000-0  73033-4 0  9991,2 55916  69.9991 221.5569 0002238 279.3018  80.7888 14.98347232 40091,6950.14,96.106,573.56,570.449,0.0
55916.0,STARLINK-5796,PAYLOAD,2023-12-07 01:39:38,14.98347188,0.0001734,69.9997,221.2217,284.8515,75.2452,0.00015702,1.782e-05,0.0,0 STARLINK-5796,1 55916U 23037C   23341.06919729  .00001782  00000-0  15702-3 0  9993,2 55916  69.9997 221.2217 0001734 284.8515  75.2452 14.98347188 40453,6950.14,96.106,573.21,570.8,0.0
55916.0,STARLINK-5796,PAYLOAD,2023-12-07 16:04:52,14.98325764,0.0002488,70.0011,219.7055,264.4982,95.5893,-2.3498e-06,-1.21e-06,0.0,0 STARLINK-5796,1 55916U 23037C   23341.67004935 -.00000121  00000-0 -23498-5 0  9995,2 55916  70.0011 219.7055 0002488 264.4982  95.5893 14.98325764 40544,6950.206,96.107,573.8,570.342,0.0
55916.0,STARLINK-5796,PAYLOAD,2023-12-08 01:41:40,14.98322383,0.0002938,70.001,218.6957,262.3997,97.6828,-4.5186e-05,-6.32e-06,0.0,0 STARLINK-5796,1 55916U 23037C   23342.07061274 -.00000632  00000-0 -45186-4 0  9993,2 55916  70.0010 218.6957 0002938 262.3997  97.6828 14.98322383 40269,6950.216,96.107,574.123,570.039,0.0
55916.0,STARLINK-5796,PAYLOAD,2023-12-09 01:43:41,14.98331076,0.0003075,69.9999,216.1727,264.8673,95.2135,-0.00017052,-2.127e-05,0.0,0 STARLINK-5796,1 55916U 23037C   23343.07201064 -.00002127  00000-0 -17052-3 0  9998,2 55916  69.9999 216.1727 0003075 264.8673  95.2135 14.98331076 40759,6950.19,96.107,574.192,569.917,0.0
